0 IRIDIUM 33 DEB
1 34147U 97051EA  13282.41969745  .00011887  00000-0  42128-2 0  3507
2 34147 086.4718 159.0325 0085116 058.2434 355.8107 14.32403552241833
0 IRIDIUM 33 DEB
1 34147U 97051EA  13284.11712964  .00010719  00000-0  37965-2 0  3512
2 34147 086.4725 158.3399 0085186 052.9307 108.7572 14.32431741242070
0 IRIDIUM 33 DEB
1 34147U 97051EA  13286.40164727  .00008382  00000-0  29658-2 0  3539
2 34147 086.4729 157.4078 0085216 045.7808 009.3174 14.32467387242404
0 IRIDIUM 33 DEB
1 34147U 97051EA  13287.65835708  .00011510  00000-0  40718-2 0  3549
2 34147 086.4728 156.8951 0085206 041.8348 009.9239 14.32489522242583
0 IRIDIUM 33 DEB
1 34147U 97051EA  13288.77981569  .00012499  00000-0  44192-2 0  3558
2 34147 086.4726 156.4376 0085158 038.3191 033.1773 14.32520129242740
0 IRIDIUM 33 DEB
1 34147U 97051EA  13289.96627478  .00012118  00000-0  42828-2 0  3569
2 34147 086.4723 155.9536 0085139 034.6120 031.7322 14.32541354242915
0 IRIDIUM 33 DEB
1 34147U 97051EA  13291.10247885  .00010545  00000-0  37252-2 0  3576
2 34147 086.4719 155.4898 0085095 031.0286 131.2429 14.32566334243078
0 IRIDIUM 33 DEB
1 34147U 97051EA  13292.40792451  .00010562  00000-0  37295-2 0  3581
2 34147 086.4717 154.9570 0085029 026.9544 023.6246 14.32588948243261
0 IRIDIUM 33 DEB
1 34147U 97051EA  13293.81960480  .00011431  00000-0  40348-2 0  3596
2 34147 086.4714 154.3807 0084950 022.4903 104.0569 14.32613608243463
0 IRIDIUM 33 DEB
1 34147U 97051EA  13295.08167554  .00011642  00000-0  41078-2 0  3605
2 34147 086.4716 153.8657 0084873 018.5085 133.0113 14.32636653243645
0 IRIDIUM 33 DEB
1 34147U 97051EA  13296.12409141  .00012393  00000-0  43710-2 0  3612
2 34147 086.4718 153.4402 0084789 015.2197 109.2038 14.32659067243796
